{
  "type": "FeatureCollection",
  "features": [
    {
      "type": "Feature",
      "properties": {
        "norad_id": 66948,
        "name": "STARLINK-36116",
        "group": "last-30-days",
        "lat": 40.893225380675986,
        "lon": 161.13618885129284,
        "alt_km": 315.88401255189547,
        "timestamp": "2025-12-18T10:51:24.516749+00:00",
        "meta_object_name": "STARLINK-36116",
        "meta_object_id": "2025-286Z",
        "meta_epoch": "2025-12-17T22:00:01.999584",
        "meta_mean_motion": 15.84713294,
        "meta_eccentricity": 7.625e-05,
        "meta_inclination": 53.1553,
        "meta_ra_of_asc_node": 24.33,
        "meta_arg_of_pericenter": 89.7768,
        "meta_mean_anomaly": 219.0643,
        "meta_ephemeris_type": 0,
        "meta_classification_type": "U",
        "meta_norad_cat_id": 66948,
        "meta_element_set_no": 999,
        "meta_rev_at_epoch": 282,
        "meta_bstar": -0.006828897,
        "meta_mean_motion_dot": -0.01407442,
        "meta_mean_motion_ddot": 0,
        "tle_line1": "1 66948U 25286Z   25351.91668981 -.01407442  00000+0 -68289-2 0  9998",
        "tle_line2": "2 66948  53.1553  24.3300 0000762  89.7768 219.0643 15.84713294  2820"
      },
      "geometry": {
        "type": "Point",
        "coordinates": [
          161.13618885129284,
          40.893225380675986
        ]
      }
    },
    {
      "type": "Feature",
      "properties": {
        "norad_id": 66949,
        "name": "STARLINK-36096",
        "group": "last-30-days",
        "lat": 38.28937448090182,
        "lon": 165.32589566097107,
        "alt_km": 316.31312274449374,
        "timestamp": "2025-12-18T10:51:24.516759+00:00",
        "meta_object_name": "STARLINK-36096",
        "meta_object_id": "2025-286AA",
        "meta_epoch": "2025-12-17T22:00:01.999584",
        "meta_mean_motion": 15.8474606,
        "meta_eccentricity": 6.387e-05,
        "meta_inclination": 53.1552,
        "meta_ra_of_asc_node": 24.3215,
        "meta_arg_of_pericenter": 93.4631,
        "meta_mean_anomaly": 219.476,
        "meta_ephemeris_type": 0,
        "meta_classification_type": "U",
        "meta_norad_cat_id": 66949,
        "meta_element_set_no": 999,
        "meta_rev_at_epoch": 282,
        "meta_bstar": -0.006879568,
        "meta_mean_motion_dot": -0.01446943,
        "meta_mean_motion_ddot": 0,
        "tle_line1": "1 66949U 25286AA  25351.91668981 -.01446943  00000+0 -68796-2 0  9991",
        "tle_line2": "2 66949  53.1552  24.3215 0000638  93.4631 219.4760 15.84746060  2829"
      },
      "geometry": {
        "type": "Point",
        "coordinates": [
          165.32589566097107,
          38.28937448090182
        ]
      }
    },
    {
      "type": "Feature",
      "properties": {
        "norad_id": 66950,
        "name": "STARLINK-36111",
        "group": "last-30-days",
        "lat": 35.42366708656583,
        "lon": 169.381444545101,
        "alt_km": 316.76612011265297,
        "timestamp": "2025-12-18T10:51:24.516770+00:00",
        "meta_object_name": "STARLINK-36111",
        "meta_object_id": "2025-286AB",
        "meta_epoch": "2025-12-17T22:00:01.999584",
        "meta_mean_motion": 15.84772304,
        "meta_eccentricity": 6.84e-05,
        "meta_inclination": 53.1552,
        "meta_ra_of_asc_node": 24.3126,
        "meta_arg_of_pericenter": 87.2546,
        "meta_mean_anomaly": 229.9751,
        "meta_ephemeris_type": 0,
        "meta_classification_type": "U",
        "meta_norad_cat_id": 66950,
        "meta_element_set_no": 999,
        "meta_rev_at_epoch": 282,
        "meta_bstar": -0.0069370685,
        "meta_mean_motion_dot": -0.0145934,
        "meta_mean_motion_ddot": 0,
        "tle_line1": "1 66950U 25286AB  25351.91668981 -.01459340  00000+0 -69371-2 0  9998",
        "tle_line2": "2 66950  53.1552  24.3126 0000684  87.2546 229.9751 15.84772304  2825"
      },
      "geometry": {
        "type": "Point",
        "coordinates": [
          169.381444545101,
          35.42366708656583
        ]
      }
    },
    {
      "type": "Feature",
      "properties": {
        "norad_id": 66951,
        "name": "STARLINK-35999",
        "group": "last-30-days",
        "lat": 33.87279578043134,
        "lon": 171.38668504821467,
        "alt_km": 317.02282177561756,
        "timestamp": "2025-12-18T10:51:24.516782+00:00",
        "meta_object_name": "STARLINK-35999",
        "meta_object_id": "2025-286AC",
        "meta_epoch": "2025-12-17T22:00:01.999584",
        "meta_mean_motion": 15.84778688,
        "meta_eccentricity": 6.502e-05,
        "meta_inclination": 53.1552,
        "meta_ra_of_asc_node": 24.3079,
        "meta_arg_of_pericenter": 89.2983,
        "meta_mean_anomaly": 230.1858,
        "meta_ephemeris_type": 0,
        "meta_classification_type": "U",
        "meta_norad_cat_id": 66951,
        "meta_element_set_no": 999,
        "meta_rev_at_epoch": 282,
        "meta_bstar": -0.0069455615,
        "meta_mean_motion_dot": -0.01461303,
        "meta_mean_motion_ddot": 0,
        "tle_line1": "1 66951U 25286AC  25351.91668981 -.01461303  00000+0 -69456-2 0  9995",
        "tle_line2": "2 66951  53.1552  24.3079 0000650  89.2983 230.1858 15.84778688  2826"
      },
      "geometry": {
        "type": "Point",
        "coordinates": [
          171.38668504821467,
          33.87279578043134
        ]
      }
    },
    {
      "type": "Feature",
      "properties": {
        "norad_id": 66952,
        "name": "STARLINK-36122",
        "group": "last-30-days",
        "lat": 36.852948826662455,
        "lon": 167.42180576382148,
        "alt_km": 316.557166591414,
        "timestamp": "2025-12-18T10:51:24.516792+00:00",
        "meta_object_name": "STARLINK-36122",
        "meta_object_id": "2025-286AD",
        "meta_epoch": "2025-12-17T22:00:01.999584",
        "meta_mean_motion": 15.84759209,
        "meta_eccentricity": 6.74e-05,
        "meta_inclination": 53.1554,
        "meta_ra_of_asc_node": 24.3172,
        "meta_arg_of_pericenter": 86.2609,
        "meta_mean_anomaly": 228.8565,
        "meta_ephemeris_type": 0,
        "meta_classification_type": "U",
        "meta_norad_cat_id": 66952,
        "meta_element_set_no": 999,
        "meta_rev_at_epoch": 282,
        "meta_bstar": -0.0069177287,
        "meta_mean_motion_dot": -0.01454905,
        "meta_mean_motion_ddot": 0,
        "tle_line1": "1 66952U 25286AD  25351.91668981 -.01454905  00000+0 -69177-2 0  9996",
        "tle_line2": "2 66952  53.1554  24.3172 0000674  86.2609 228.8565 15.84759209  2828"
      },
      "geometry": {
        "type": "Point",
        "coordinates": [
          167.42180576382148,
          36.852948826662455
        ]
      }
    },
    {
      "type": "Feature",
      "properties": {
        "norad_id": 66953,
        "name": "HULIANWANG DIGUI-114",
        "group": "last-30-days",
        "lat": -62.3558352988764,
        "lon": 170.79043211127313,
        "alt_km": 1007.7359868773028,
        "timestamp": "2025-12-18T10:51:24.516812+00:00",
        "meta_object_name": "HULIANWANG DIGUI-114",
        "meta_object_id": "2025-287A",
        "meta_epoch": "2025-12-15T20:15:59.937408",
        "meta_mean_motion": 13.68689195,
        "meta_eccentricity": 0.00087999,
        "meta_inclination": 86.496,
        "meta_ra_of_asc_node": 345.0232,
        "meta_arg_of_pericenter": 195.8466,
        "meta_mean_anomaly": 164.2419,
        "meta_ephemeris_type": 0,
        "meta_classification_type": "U",
        "meta_norad_cat_id": 66953,
        "meta_element_set_no": 999,
        "meta_rev_at_epoch": 95,
        "meta_bstar": 2.5636052e-05,
        "meta_mean_motion_dot": 3.9e-07,
        "meta_mean_motion_ddot": 0,
        "tle_line1": "1 66953U 25287A   25349.84444372  .00000039  00000+0  25636-4 0  9999",
        "tle_line2": "2 66953  86.4960 345.0232 0008799 195.8466 164.2419 13.68689195   952"
      },
      "geometry": {
        "type": "Point",
        "coordinates": [
          170.79043211127313,
          -62.3558352988764
        ]
      }
    },
    {
      "type": "Feature",
      "properties": {
        "norad_id": 66954,
        "name": "HULIANWANG DIGUI-115",
        "group": "last-30-days",
        "lat": -65.80177839545179,
        "lon": 171.90877645082662,
        "alt_km": 1007.8028998063073,
        "timestamp": "2025-12-18T10:51:24.516822+00:00",
        "meta_object_name": "HULIANWANG DIGUI-115",
        "meta_object_id": "2025-287B",
        "meta_epoch": "2025-12-17T17:52:09.139872",
        "meta_mean_motion": 13.68792369,
        "meta_eccentricity": 0.00090008,
        "meta_inclination": 86.4975,
        "meta_ra_of_asc_node": 344.3338,
        "meta_arg_of_pericenter": 188.9372,
        "meta_mean_anomaly": 171.1628,
        "meta_ephemeris_type": 0,
        "meta_classification_type": "U",
        "meta_norad_cat_id": 66954,
        "meta_element_set_no": 999,
        "meta_rev_at_epoch": 121,
        "meta_bstar": 1.5683947e-05,
        "meta_mean_motion_dot": 3e-07,
        "meta_mean_motion_ddot": 0,
        "tle_line1": "1 66954U 25287B   25351.74455023  .00000030  00000+0  15684-4 0  9990",
        "tle_line2": "2 66954  86.4975 344.3338 0009000 188.9372 171.1628 13.68792369  1210"
      },
      "geometry": {
        "type": "Point",
        "coordinates": [
          171.90877645082662,
          -65.80177839545179
        ]
      }
    }
  ]
}